TYVAK-0173              
1 48892U 21059P   26139.16121333  .00001057  00000+0  13787-3 0  9990
2 48892  96.0086 222.7340 0010829 122.6742 237.5522 14.81780335263946
MANDRAKE 2 ABLE         
1 48907U 21059AE  26139.07538270  .00014710  00000+0  23116-3 0  9996
2 48907  97.7040 326.6678 0006264  99.5215 260.6746 15.53731669272608
MANDRAKE 2 BAKER        
1 48908U 21059AF  26139.08934532  .00018706  00000+0  25101-3 0  9994
2 48908  97.7013 329.3587 0004908  98.8606 261.3205 15.57989314272768
PACE-1                  
1 48909U 21059AG  26139.03558756  .00054615  00000+0  36617-3 0  9993
2 48909  97.6793 333.9994 0002465  82.6134 277.5410 15.75094615273207
YAM-3                   
1 48915U 21059AN  26139.11166231  .00008200  00000+0  15952-3 0  9990
2 48915  97.6989 324.1835 0006691 100.3509 259.8495 15.47856470272496
FARADAY_PHOENIX         
1 48924U 21059AX  26139.11374738  .00077247  00000+0  60061-3 0  9991
2 48924  97.6845 334.0736 0004587  91.3835 268.7952 15.71518287273081
DEMO8 (TENZING)         
1 48951U 21059CA  26139.14354111  .00013431  00000+0  21055-3 0  9992
2 48951  97.7032 330.3774 0008373  93.6995 266.5215 15.53804302272791
NAPA-2                  
1 48963U 21059CN  26139.10403894  .00131228  00000+0  51742-3 0  9995
2 48963  97.6769 334.4127 0001385 117.2554 242.8857 15.86494515273187
FENGYUN 3E              
1 49008U 21062A   26139.23975583 -.00000470  00000+0 -20067-3 0  9995
2 49008  98.7491 142.9706 0002109 135.8453 224.2892 14.19900022252478
ISS (NAUKA)             
1 49044U 21066A   26139.16549516  .00005281  00000+0  10297-3 0  9991
2 49044  51.6326  83.7685 0007549  74.4022 285.7799 15.49268281567019
STARLINK-3100           
1 49144U 21082Q   26139.19997436  .00001482  00000+0  13194-3 0  9999
2 49144  69.9993 116.6649 0003370 263.8043  96.2732 14.98334445256547
CUTE                    
1 49263U 21088D   26138.23013197  .00060276  00000+0  33444-3 0  9990
2 49263  97.4196 234.9289 0001960 263.6082  96.4962 15.79370120257805
2021-091B               
1 49316U 21091B   26139.19683777  .00001758  00000+0  88605-4 0  9996
2 49316  97.4472 327.2162 0014364 136.6204 223.6163 15.18389043254580
SDGSAT 1                
1 49387U 21100A   26139.19619225  .00002109  00000+0  10157-3 0  9999
2 49387  97.2654 187.2195 0009202  44.1587 316.0381 15.19764658251519
TEIKYOSAT-4 (OORURI)    
1 49396U 21102B   26139.08513505  .00001327  00000+0  86719-4 0  9992
2 49396  97.3692 169.6994 0013046  40.1437 320.0753 15.09393724248339
Z-SAT                   
1 49399U 21102E   26139.19673547  .00002108  00000+0  10657-3 0  9995
2 49399  97.3339 175.4018 0016331 355.2268   4.8808 15.18021626249040
HIBARI                  
1 49400U 21102F   26139.12496279  .00007283  00000+0  24470-3 0  9993
2 49400  97.3254 185.3699 0009904 308.4155  51.6197 15.31089639249748
KOSEN-1                 
1 49402U 21102H   26139.10446633  .00004745  00000+0  18480-3 0  9996
2 49402  97.3204 181.8327 0012244 315.3730  44.6522 15.26395962249580
GLOBAL-14               
1 49469U 21106A   26138.31341732  .00014052  00000+0  25655-3 0  9993
2 49469  42.0035 108.4078 0015360 182.3778 177.6994 15.49064901253492
GAOFEN-3 02             
1 49495U 21109A   26139.18765223 -.00000177  00000+0 -40661-4 0  9996
2 49495  98.4090 147.6959 0004054  80.6394 279.5254 14.42212334236132
GLOBAL-12               
1 49772U 21115BA  26138.52814231  .00016180  00000+0  27256-3 0  9995
2 49772  53.1937 186.9504 0002810 350.8674   9.2285 15.51879840251299
GLOBAL-13               
1 49773U 21115BB  26139.14795024  .00012685  00000+0  27380-3 0  9997
2 49773  53.1957 192.5100 0003767  39.5041 320.6241 15.44939566251272
GLOBAL-17               
1 49949U 21120A   26138.60514000  .00016750  00000+0  28809-3 0  9995
2 49949  41.9947 225.3534 0012152  41.4523 318.7241 15.50695615250304
GLOBAL-16               
1 49950U 21120B   26138.96723027  .00016429  00000+0  30262-3 0  9996
2 49950  41.9951 226.4079 0010325  32.9670 327.1815 15.48781798250312
XW-3 (CAS-9)            
1 50466U 21131B   26139.24534003  .00000277  00000+0  99106-4 0  9995
2 50466  98.4972 231.7937 0004291 168.2914 191.8375 14.41326699230948
ION SCV-004             
1 50993U 22002K   26139.13650098  .00003753  00000+0  13115-3 0  9996
2 50993  97.2849 197.3447 0009203  97.5349 262.6938 15.30131974240852
ETV-A1                  
1 51060U 22002CE  26139.17032800  .00007312  00000+0  18514-3 0  9994
2 51060  97.2888 205.5711 0006866  93.3952 266.8080 15.40018357241375
BRO-5                   
1 51061U 22002CF  26139.19872292  .00020443  00000+0  42510-3 0  9997
2 51061  97.3007 212.6471 0006374  82.5053 277.6920 15.45651724241771
LUDI TANCE 1-01A (L-SA*)
1 51284U 22007A   26139.20633631  .00000332  00000+0  41661-4 0  9995
2 51284  97.8081 147.0380 0001630  91.0745 269.0658 14.88418451234160
LUDI TANCE 1-01B (L-SA*)
1 51822U 22018A   26139.17270433  .00000374  00000+0  46211-4 0  9990
2 51822  97.8089 147.0012 0001612  92.1486 267.9915 14.88419363229397
