OBJECT_NAME,OBJECT_ID,EPOCH,MEAN_MOTION,ECCENTRICITY,INCLINATION,RA_OF_ASC_NODE,ARG_OF_PERICENTER,MEAN_ANOMALY,EPHEMERIS_TYPE,CLASSIFICATION_TYPE,NORAD_CAT_ID,ELEMENT_SET_NO,REV_AT_EPOCH,BSTAR,MEAN_MOTION_DOT,MEAN_MOTION_DDOT
TYVAK-0173,2021-059P,2026-05-19T03:52:08.831712,14.81780335,.0010829,96.0086,222.7340,122.6742,237.5522,0,U,48892,999,26394,.13787E-3,.1057E-4,0
MANDRAKE 2 ABLE,2021-059AE,2026-05-19T01:48:33.065280,15.53731669,.0006264,97.7040,326.6678,99.5215,260.6746,0,U,48907,999,27260,.23116E-3,.1471E-3,0
MANDRAKE 2 BAKER,2021-059AF,2026-05-19T02:08:39.435648,15.57989314,.0004908,97.7013,329.3587,98.8606,261.3205,0,U,48908,999,27276,.25101E-3,.18706E-3,0
PACE-1,2021-059AG,2026-05-19T00:51:14.765184,15.75094615,.0002465,97.6793,333.9994,82.6134,277.5410,0,U,48909,999,27320,.36617E-3,.54615E-3,0
YAM-3,2021-059AN,2026-05-19T02:40:47.623584,15.47856470,.0006691,97.6989,324.1835,100.3509,259.8495,0,U,48915,999,27249,.15952E-3,.82E-4,0
FARADAY_PHOENIX,2021-059AX,2026-05-19T02:43:47.773632,15.71518287,.0004587,97.6845,334.0736,91.3835,268.7952,0,U,48924,999,27308,.60061E-3,.77247E-3,0
DEMO8 (TENZING),2021-059CA,2026-05-19T03:26:41.951904,15.53804302,.0008373,97.7032,330.3774,93.6995,266.5215,0,U,48951,999,27279,.21055E-3,.13431E-3,0
NAPA-2,2021-059CN,2026-05-19T02:29:48.964416,15.86494515,.0001385,97.6769,334.4127,117.2554,242.8857,0,U,48963,999,27318,.51742E-3,.131228E-2,0
FENGYUN 3E,2021-062A,2026-05-19T05:45:14.903712,14.19900022,.0002109,98.7491,142.9706,135.8453,224.2892,0,U,49008,999,25247,-.20067E-3,-.47E-5,0
ISS (NAUKA),2021-066A,2026-05-19T03:58:18.781824,15.49268281,.0007549,51.6326,83.7685,74.4022,285.7799,0,U,49044,999,56701,.10297E-3,.5281E-4,0
STARLINK-3100,2021-082Q,2026-05-19T04:47:57.784704,14.98334445,.000337,69.9993,116.6649,263.8043,96.2732,0,U,49144,999,25654,.13194E-3,.1482E-4,0
CUTE,2021-088D,2026-05-18T05:31:23.402208,15.79370120,.00019604,97.4196,234.9289,263.6082,96.4962,0,U,49263,999,25780,.33444164E-3,.60276E-3,0
2021-091B,2021-091B,2026-05-19T04:43:26.783328,15.18389043,.0014364,97.4472,327.2162,136.6204,223.6163,0,U,49316,999,25458,.88605E-4,.1758E-4,0
SDGSAT 1,2021-100A,2026-05-19T04:42:31.010400,15.19764658,.0009202,97.2654,187.2195,44.1587,316.0381,0,U,49387,999,25151,.10157E-3,.2109E-4,0
TEIKYOSAT-4 (OORURI),2021-102B,2026-05-19T02:02:35.668320,15.09393724,.0013046,97.3692,169.6994,40.1437,320.0753,0,U,49396,999,24833,.86719E-4,.1327E-4,0
Z-SAT,2021-102E,2026-05-19T04:43:17.944608,15.18021626,.0016331,97.3339,175.4018,355.2268,4.8808,0,U,49399,999,24904,.10657E-3,.2108E-4,0
HIBARI,2021-102F,2026-05-19T02:59:56.785056,15.31089639,.0009904,97.3254,185.3699,308.4155,51.6197,0,U,49400,999,24974,.2447E-3,.7283E-4,0
KOSEN-1,2021-102H,2026-05-19T02:30:25.890912,15.26395962,.0012244,97.3204,181.8327,315.3730,44.6522,0,U,49402,999,24958,.1848E-3,.4745E-4,0
GLOBAL-14,2021-106A,2026-05-18T07:31:19.256448,15.49064901,.00153609,42.0035,108.4078,182.3778,177.6994,0,U,49469,999,25349,.25655499E-3,.14052E-3,0
GAOFEN-3 02,2021-109A,2026-05-19T04:30:13.152672,14.42212334,.0004054,98.4090,147.6959,80.6394,279.5254,0,U,49495,999,23613,-.40661E-4,-.177E-5,0
GLOBAL-12,2021-115BA,2026-05-18T12:40:31.495584,15.51879840,.00028101,53.1937,186.9504,350.8674,9.2285,0,U,49772,999,25129,.27255914E-3,.1618E-3,0
GLOBAL-13,2021-115BB,2026-05-19T03:33:02.900736,15.44939566,.0003767,53.1957,192.5100,39.5041,320.6241,0,U,49773,999,25127,.2738E-3,.12685E-3,0
GLOBAL-17,2021-120A,2026-05-18T14:31:24.096000,15.50695615,.0012152,41.9947,225.3534,41.4523,318.7241,0,U,49949,999,25030,.28809114E-3,.1675E-3,0
GLOBAL-16,2021-120B,2026-05-18T23:12:48.695328,15.48781798,.0010325,41.9951,226.4079,32.9670,327.1815,0,U,49950,999,25031,.30262E-3,.16429E-3,0
XW-3 (CAS-9),2021-131B,2026-05-19T05:53:17.378592,14.41326699,.0004291,98.4972,231.7937,168.2914,191.8375,0,U,50466,999,23094,.99106E-4,.277E-5,0
ION SCV-004,2022-002K,2026-05-19T03:16:33.684672,15.30131974,.0009203,97.2849,197.3447,97.5349,262.6938,0,U,50993,999,24085,.13115E-3,.3753E-4,0
ETV-A1,2022-002CE,2026-05-19T04:05:16.339200,15.40018357,.0006866,97.2888,205.5711,93.3952,266.8080,0,U,51060,999,24137,.18514E-3,.7312E-4,0
BRO-5,2022-002CF,2026-05-19T04:46:09.660288,15.45651724,.0006374,97.3007,212.6471,82.5053,277.6920,0,U,51061,999,24177,.4251E-3,.20443E-3,0
LUDI TANCE 1-01A (L-SAR 01A),2022-007A,2026-05-19T04:57:07.457184,14.88418451,.000163,97.8081,147.0380,91.0745,269.0658,0,U,51284,999,23416,.41661E-4,.332E-5,0
LUDI TANCE 1-01B (L-SAR 01B),2022-018A,2026-05-19T04:08:41.654112,14.88419363,.0001612,97.8089,147.0012,92.1486,267.9915,0,U,51822,999,22939,.46211E-4,.374E-5,0
